STARLINK-33550          
1 62285U 24237U   26068.43523758  .00026957  00000+0  98534-3 0  9990
2 62285  42.9960 217.7377 0000695 245.5691 114.5088 15.27587061 71154
ARCSTONE                
1 64540U 25135N   26068.88991918  .00026427  00000+0  94900-3 0  9995
2 64540  97.4495 185.9194 0004120 166.7863 193.3485 15.28638458 39847
